NORAD_CAT_ID,OBJECT_NAME,OBJECT_TYPE,EPOCH,MEAN_MOTION,ECCENTRICITY,INCLINATION,RA_OF_ASC_NODE,ARG_OF_PERICENTER,MEAN_ANOMALY,BSTAR,MEAN_MOTION_DOT,MEAN_MOTION_DDOT,TLE_LINE0,TLE_LINE1,TLE_LINE2,SEMIMAJOR_AXIS,PERIOD,APOGEE,PERIGEE,DECAYED
55311.0,STARLINK-5312,PAYLOAD,2023-06-30 12:38:51,15.69919104,0.0003307,69.999,333.4501,264.5686,95.5133,-5.4653e-06,-8.7e-06,0.0,0 STARLINK-5312,1 55311U 23010AU  23181.52697987 -.00000870  00000-0 -54653-5 0  9994,2 55311  69.9990 333.4501 0003307 264.5686  95.5133 15.69919104 25938,6737.265,91.724,361.358,356.902,0.0
55311.0,STARLINK-5312,PAYLOAD,2023-06-30 21:49:21,15.69925057,0.0004045,69.9991,332.3749,264.0337,96.0398,6.2454e-06,5.38e-06,0.0,0 STARLINK-5312,1 55311U 23010AU  23181.90927716  .00000538  00000-0  62454-5 0  9999,2 55311  69.9991 332.3749 0004045 264.0337  96.0398 15.69925057 25998,6737.248,91.724,361.839,356.388,0.0
55311.0,STARLINK-5312,PAYLOAD,2023-07-02 10:31:24,15.69930098,0.000339,69.9993,328.0752,264.5134,95.5675,3.8902e-05,4.469e-05,0.0,0 STARLINK-5312,1 55311U 23010AU  23183.43848049  .00004469  00000-0  38902-4 0  9997,2 55311  69.9993 328.0752 0003390 264.5134  95.5675 15.69930098 26239,6737.234,91.724,361.383,356.815,0.0
55311.0,STARLINK-5312,PAYLOAD,2023-07-03 12:31:11,15.6992796,0.0003293,70.0,325.0276,270.4993,89.5825,1.3254e-05,1.381e-05,0.0,0 STARLINK-5312,1 55311U 23010AU  23184.52166491  .00001381  00000-0  13254-4 0  9995,2 55311  70.0000 325.0276 0003293 270.4993  89.5825 15.69927960 26403,6737.24,91.724,361.324,356.887,0.0
55311.0,STARLINK-5312,PAYLOAD,2023-07-04 11:27:29,15.69882391,0.0003989,70.002,322.3431,281.2099,78.8648,-0.00010655,-0.00012985,0.0,0 STARLINK-5312,1 55311U 23010AU  23185.47743053 -.00012985  00000-0 -10655-3 0  9990,2 55311  70.0020 322.3431 0003989 281.2099  78.8648 15.69882391 26555,6737.37,91.727,361.923,356.548,0.0
55311.0,STARLINK-5312,PAYLOAD,2023-07-04 16:02:45,15.69887396,0.0003798,70.0,321.8035,273.447,86.6292,-8.6323e-05,-0.00010565,0.0,0 STARLINK-5312,1 55311U 23010AU  23185.66858145 -.00010565  00000-0 -86323-4 0  9998,2 55311  70.0000 321.8035 0003798 273.4470  86.6292 15.69887396 26586,6737.356,91.726,361.78,356.662,0.0
55311.0,STARLINK-5312,PAYLOAD,2023-07-05 14:59:01,15.69938892,0.0003449,69.9993,319.1147,264.6809,95.3993,5.7154e-05,6.669e-05,0.0,0 STARLINK-5312,1 55311U 23010AU  23186.62432336  .00006669  00000-0  57154-4 0  9993,2 55311  69.9993 319.1147 0003449 264.6809  95.3993 15.69938892 26739,6737.209,91.723,361.397,356.75,0.0
55311.0,STARLINK-5312,PAYLOAD,2023-07-06 16:58:48,15.69926492,0.000397,69.9993,316.0719,269.5705,90.5036,6.285e-05,7.352e-05,0.0,0 STARLINK-5312,1 55311U 23010AU  23187.70750747  .00007352  00000-0  62850-4 0  9991,2 55311  69.9993 316.0719 0003970 269.5705  90.5036 15.69926492 26905,6737.244,91.724,361.784,356.435,0.0
55311.0,STARLINK-5312,PAYLOAD,2023-07-07 02:09:19,15.69920596,0.0003984,69.9992,314.9969,269.9072,90.1667,1.5203e-05,1.615e-05,0.0,0 STARLINK-5312,1 55311U 23010AU  23188.08980926  .00001615  00000-0  15203-4 0  9993,2 55311  69.9992 314.9969 0003984 269.9072  90.1667 15.69920596 26965,6737.261,91.724,361.81,356.442,0.0
55311.0,STARLINK-5312,PAYLOAD,2023-07-07 17:26:50,15.69942276,0.0003586,69.9981,313.2057,267.9769,92.1016,3.2437e-07,-1.74e-06,0.0,0 STARLINK-5312,1 55311U 23010AU  23188.72696808 -.00000174  00000-0  32437-6 0  9997,2 55311  69.9981 313.2057 0003586 267.9769  92.1016 15.69942276 27063,6737.199,91.723,361.48,356.648,0.0
55311.0,STARLINK-5312,PAYLOAD,2023-07-07 20:30:20,15.69933759,0.0003085,69.9986,312.8455,269.9508,90.1334,-4.2859e-06,-7.28e-06,0.0,0 STARLINK-5312,1 55311U 23010AU  23188.85440881 -.00000728  00000-0 -42859-5 0  9993,2 55311  69.9986 312.8455 0003085 269.9508  90.1334 15.69933759 27081,6737.224,91.724,361.167,357.01,0.0
55311.0,STARLINK-5312,PAYLOAD,2023-07-09 01:33:37,15.69922643,0.0003719,69.9977,309.4432,268.0164,92.0606,1.3941e-05,1.464e-05,0.0,0 STARLINK-5312,1 55311U 23010AU  23190.06502253  .00001464  00000-0  13941-4 0  9996,2 55311  69.9977 309.4432 0003719 268.0164  92.0606 15.69922643 27274,6737.255,91.724,361.626,356.615,0.0
55311.0,STARLINK-5312,PAYLOAD,2023-07-10 09:40:25,15.69917043,0.0002908,69.9994,305.6803,267.8867,92.1995,2.5675e-05,2.875e-05,0.0,0 STARLINK-5312,1 55311U 23010AU  23191.40307536  .00002875  00000-0  25675-4 0  9996,2 55311  69.9994 305.6803 0002908 267.8867  92.1995 15.69917043 27482,6737.271,91.725,361.096,357.177,0.0
55311.0,STARLINK-5312,PAYLOAD,2023-07-11 10:08:27,15.69923357,0.000322,69.9993,302.8154,269.4462,90.6364,1.0319e-05,1.028e-05,0.0,0 STARLINK-5312,1 55311U 23010AU  23192.42254571  .00001028  00000-0  10319-4 0  9997,2 55311  69.9993 302.8154 0003220 269.4462  90.6364 15.69923357 27642,6737.253,91.724,361.288,356.949,0.0
55311.0,STARLINK-5312,PAYLOAD,2023-07-12 16:43:30,15.69920605,0.0003397,69.9995,299.2322,269.4983,90.5824,-4.5313e-06,-7.57e-06,0.0,0 STARLINK-5312,1 55311U 23010AU  23193.69687716 -.00000757  00000-0 -45313-5 0  9991,2 55311  69.9995 299.2322 0003397 269.4983  90.5824 15.69920605 27848,6737.261,91.724,361.415,356.837,0.0
55311.0,STARLINK-5312,PAYLOAD,2023-07-13 15:39:46,15.69929762,0.0003355,69.9976,296.5439,270.5507,89.5305,4.8212e-06,3.67e-06,0.0,0 STARLINK-5312,1 55311U 23010AU  23194.65262590  .00000367  00000-0  48212-5 0  9993,2 55311  69.9976 296.5439 0003355 270.5507  89.5305 15.69929762 27996,6737.235,91.724,361.36,356.84,0.0
55311.0,STARLINK-5312,PAYLOAD,2023-07-14 10:01:03,15.69714744,0.0003781,69.9979,294.3952,289.746,70.3327,-0.00021495,-0.00025759,0.0,0 STARLINK-5312,1 55311U 23010AU  23195.41739742 -.00025759  00000-0 -21495-3 0  9992,2 55311  69.9979 294.3952 0003781 289.7460  70.3327 15.69714744 28117,6737.85,91.736,362.263,357.168,0.0
55311.0,STARLINK-5312,PAYLOAD,2023-07-14 16:08:30,15.6938045,0.0003441,69.9987,293.6811,275.6282,84.4521,-0.00055187,-0.000646,0.0,0 STARLINK-5312,1 55311U 23010AU  23195.67257118 -.00064600  00000-0 -55187-3 0  9995,2 55311  69.9987 293.6811 0003441 275.6282  84.4521 15.69380450 28150,6738.807,91.756,362.991,358.353,0.0
55311.0,STARLINK-5312,PAYLOAD,2023-07-14 23:48:27,15.68559293,0.0004076,69.9977,292.787,237.4828,122.5973,-0.0014644,-0.001635,0.0,0 STARLINK-5312,1 55311U 23010AU  23195.99198023 -.00163500  00000-0 -14644-2 0  9990,2 55311  69.9977 292.7870 0004076 237.4828 122.5973 15.68559293 28204,6741.159,91.804,365.771,360.276,0.0
55311.0,STARLINK-5312,PAYLOAD,2023-07-15 14:00:01,15.67212109,0.0003422,70.0011,291.1251,275.4804,186.5132,-0.0088885,-0.00863075,0.0,0 STARLINK-5312,1 55311U 23010AU  23196.58334491 -.00863075  00000-0 -88885-2 0  9999,2 55311  70.0011 291.1251 0003422 275.4804 186.5132 15.67212109 28299,6745.021,91.883,369.194,364.578,0.0
55311.0,STARLINK-5312,PAYLOAD,2023-07-16 06:00:00,15.65956254,0.0003676,70.0015,289.2602,265.6099,355.0107,-0.010104,-0.00939899,0.0,0 STARLINK-5312,1 55311U 23010AU  23197.25001157 -.00939899  00000-0 -10104-1 0  9990,2 55311  70.0015 289.2602 0003676 265.6099 355.0107 15.65956254 28401,6748.627,91.957,372.973,368.011,0.0
55311.0,STARLINK-5312,PAYLOAD,2023-07-17 14:00:01,15.63289071,0.0003477,70.0009,285.5414,274.0924,294.526,-0.010181,-0.00858746,0.0,0 STARLINK-5312,1 55311U 23010AU  23198.58335648 -.00858746  00000-0 -10181-1 0  9998,2 55311  70.0009 285.5414 0003477 274.0924 294.5260 15.63289071 28618,6756.301,92.113,380.515,375.817,0.0
55311.0,STARLINK-5312,PAYLOAD,2023-07-18 06:00:00,15.62050196,0.0003547,70.0012,283.6877,268.9247,88.8659,-0.012027,-0.00956535,0.0,0 STARLINK-5312,1 55311U 23010AU  23199.25001157 -.00956535  00000-0 -12027-1 0  9994,2 55311  70.0012 283.6877 0003547 268.9247  88.8659 15.62050196 28712,6759.873,92.187,384.135,379.34,0.0
55311.0,STARLINK-5312,PAYLOAD,2023-07-18 22:00:00,15.60712723,0.0003298,70.0004,281.8371,273.3559,230.5826,-0.012171,-0.00922283,0.0,0 STARLINK-5312,1 55311U 23010AU  23199.91667824 -.00922283  00000-0 -12171-1 0  9999,2 55311  70.0004 281.8371 0003298 273.3559 230.5826 15.60712723 28824,6763.734,92.266,387.83,383.368,0.0
55311.0,STARLINK-5312,PAYLOAD,2023-07-20 06:00:00,15.58135994,0.0003372,70.0004,278.1474,270.9879,155.8136,-0.014011,-0.00958532,0.0,0 STARLINK-5312,1 55311U 23010AU  23201.25001157 -.00958532  00000-0 -14011-1 0  9992,2 55311  70.0004 278.1474 0003372 270.9879 155.8136 15.58135994 29020,6771.189,92.418,395.337,390.771,0.0
55311.0,STARLINK-5312,PAYLOAD,2023-07-20 22:00:00,15.5678307,0.000323,69.9997,276.3076,272.9941,290.5704,-0.01364,-0.00893067,0.0,0 STARLINK-5312,1 55311U 23010AU  23201.91667824 -.00893067  00000-0 -13640-1 0  9992,2 55311  69.9997 276.3076 0003230 272.9941 290.5704 15.56783070 29133,6775.111,92.498,399.165,394.788,0.0
55311.0,STARLINK-5312,PAYLOAD,2023-07-21 14:00:01,15.55473963,0.0003377,69.9999,274.4714,275.6162,61.5633,-0.013997,-0.00874661,0.0,0 STARLINK-5312,1 55311U 23010AU  23202.58334491 -.00874661  00000-0 -13997-1 0  9991,2 55311  69.9999 274.4714 0003377 275.6162  61.5633 15.55473963 29234,6778.912,92.576,403.066,398.488,0.0
55311.0,STARLINK-5312,PAYLOAD,2023-07-24 14:00:01,15.51203147,0.000397,69.9999,266.2497,274.8423,267.2663,0.00085898,0.0005058,0.0,0 STARLINK-5312,1 55311U 23010AU  23205.58334491  .00050580  00000-0  85898-3 0  9999,2 55311  69.9999 266.2497 0003970 274.8423 267.2663 15.51203147  2275,6791.349,92.831,415.91,410.518,0.0
55311.0,STARLINK-5312,PAYLOAD,2023-07-25 14:00:01,15.51213883,0.0003894,69.9998,263.5158,272.4488,92.4632,0.00053161,0.00031175,0.0,0 STARLINK-5312,1 55311U 23010AU  23206.58335648  .00031175  00000-0  53161-3 0  9992,2 55311  69.9998 263.5158 0003894 272.4488  92.4632 15.51213883  2438,6791.318,92.831,415.827,410.538,0.0
55311.0,STARLINK-5312,PAYLOAD,2023-07-26 14:00:01,15.51193887,0.0003949,70.0002,260.7816,273.8816,273.7206,0.00090706,0.00053422,0.0,0 STARLINK-5312,1 55311U 23010AU  23207.58334491  .00053422  00000-0  90706-3 0  9993,2 55311  70.0002 260.7816 0003949 273.8816 273.7206 15.51193887  2597,6791.376,92.832,415.923,410.559,0.0
